[{"OBJECT_NAME":"OBJECT P","OBJECT_ID":"2024-205P","EPOCH":"2026-03-09T08:03:09.212256","MEAN_MOTION":15.17390537,"ECCENTRICITY":0.00135969,"INCLINATION":97.4202,"RA_OF_ASC_NODE":142.9505,"ARG_OF_PERICENTER":48.7292,"MEAN_ANOMALY":311.511,"EPHEMERIS_TYPE":0,"CLASSIFICATION_TYPE":"U","NORAD_CAT_ID":61907,"ELEMENT_SET_NO":999,"REV_AT_EPOCH":7319,"BSTAR":0.00033938213,"MEAN_MOTION_DOT":6.731e-5,"MEAN_MOTION_DDOT":0},{"OBJECT_NAME":"CZ-6A DEB","OBJECT_ID":"2022-151VT","EPOCH":"2026-03-09T17:17:01.578624","MEAN_MOTION":15.13055612,"ECCENTRICITY":0.00307053,"INCLINATION":98.6048,"RA_OF_ASC_NODE":145.9599,"ARG_OF_PERICENTER":176.0049,"MEAN_ANOMALY":184.143,"EPHEMERIS_TYPE":0,"CLASSIFICATION_TYPE":"U","NORAD_CAT_ID":55202,"ELEMENT_SET_NO":999,"REV_AT_EPOCH":17179,"BSTAR":0.0062201193,"MEAN_MOTION_DOT":0.00112789,"MEAN_MOTION_DDOT":0}]
